NORAD_CAT_ID,OBJECT_NAME,OBJECT_TYPE,EPOCH,MEAN_MOTION,ECCENTRICITY,INCLINATION,RA_OF_ASC_NODE,ARG_OF_PERICENTER,MEAN_ANOMALY,BSTAR,MEAN_MOTION_DOT,MEAN_MOTION_DDOT,TLE_LINE0,TLE_LINE1,TLE_LINE2,SEMIMAJOR_AXIS,PERIOD,APOGEE,PERIGEE,DECAYED
53936.0,STARLINK-4791,PAYLOAD,2023-10-06 11:42:30,15.08848574,0.0001621,53.2158,312.6813,82.3588,277.7588,0.00017,2.419e-05,0.0,0 STARLINK-4791,1 53936U 22119BC  23279.48785363  .00002419  00000-0  17000-3 0  9995,2 53936  53.2158 312.6813 0001621  82.3588 277.7588 15.08848574 58412,6917.854,95.437,540.841,538.598,0.0
53936.0,STARLINK-4791,PAYLOAD,2023-10-07 02:00:59,15.08835884,0.0001548,53.2167,310.004,89.0403,271.0767,0.00021179,3.084e-05,0.0,0 STARLINK-4791,1 53936U 22119BC  23280.08402149  .00003084  00000-0  21179-3 0  9992,2 53936  53.2167 310.0040 0001548  89.0403 271.0767 15.08835884 58072,6917.893,95.438,540.829,538.687,0.0
53936.0,STARLINK-4791,PAYLOAD,2023-10-07 08:22:31,15.0884293,0.0001846,53.2172,308.816,95.7821,264.3381,0.00019992,2.895e-05,0.0,0 STARLINK-4791,1 53936U 22119BC  23280.34897811  .00002895  00000-0  19992-3 0  9994,2 53936  53.2172 308.8160 0001846  95.7821 264.3381 15.08842930 58544,6917.871,95.437,541.013,538.459,0.0
53936.0,STARLINK-4791,PAYLOAD,2023-10-07 19:30:13,15.08845165,0.0001844,53.2175,306.7343,75.3797,284.74,0.00010676,1.412e-05,0.0,0 STARLINK-4791,1 53936U 22119BC  23280.81265756  .00001412  00000-0  10676-3 0  9997,2 53936  53.2175 306.7343 0001844  75.3797 284.7400 15.08845165 58610,6917.865,95.437,541.005,538.454,0.0
53936.0,STARLINK-4791,PAYLOAD,2023-10-08 01:51:46,15.08840481,0.0001902,53.2167,305.5465,78.4781,281.6425,0.00013195,1.813e-05,0.0,0 STARLINK-4791,1 53936U 22119BC  23281.07762114  .00001813  00000-0  13195-3 0  9990,2 53936  53.2167 305.5465 0001902  78.4781 281.6425 15.08840481 58221,6917.879,95.438,541.06,538.428,0.0
53936.0,STARLINK-4791,PAYLOAD,2023-10-08 08:13:18,15.08842116,0.0001818,53.218,304.3537,94.9031,265.2169,9.8092e-05,1.273e-05,0.0,0 STARLINK-4791,1 53936U 22119BC  23281.34257972  .00001273  00000-0  98092-4 0  9991,2 53936  53.2180 304.3537 0001818  94.9031 265.2169 15.08842116 58691,6917.874,95.437,540.997,538.481,0.0
53936.0,STARLINK-4791,PAYLOAD,2023-10-09 08:04:05,15.08849917,0.0001807,53.2168,299.8954,91.3062,268.8137,0.00018169,2.605e-05,0.0,0 STARLINK-4791,1 53936U 22119BC  23282.33617567  .00002605  00000-0  18169-3 0  9997,2 53936  53.2168 299.8954 0001807  91.3062 268.8137 15.08849917 58411,6917.85,95.437,540.965,538.465,0.0
53936.0,STARLINK-4791,PAYLOAD,2023-10-10 01:33:20,15.08836488,0.0001706,53.2165,296.6235,85.949,274.1697,0.00016243,2.298e-05,0.0,0 STARLINK-4791,1 53936U 22119BC  23283.06482356  .00002298  00000-0  16243-3 0  9993,2 53936  53.2165 296.6235 0001706  85.9490 274.1697 15.08836488 58529,6917.891,95.438,540.936,538.576,0.0
53936.0,STARLINK-4791,PAYLOAD,2023-10-10 07:54:52,15.0884679,0.0001866,53.2167,295.4355,95.2785,264.842,0.00015865,2.238e-05,0.0,0 STARLINK-4791,1 53936U 22119BC  23283.32977759  .00002238  00000-0  15865-3 0  9991,2 53936  53.2167 295.4355 0001866  95.2785 264.8420 15.08846790 58560,6917.86,95.437,541.016,538.434,0.0
53936.0,STARLINK-4791,PAYLOAD,2023-10-10 17:27:12,15.08837495,0.0001763,53.216,293.6509,94.5845,265.5349,0.00015242,2.138e-05,0.0,0 STARLINK-4791,1 53936U 22119BC  23283.72722249  .00002138  00000-0  15242-3 0  9995,2 53936  53.2160 293.6509 0001763  94.5845 265.5349 15.08837495 58626,6917.888,95.438,540.973,538.533,0.0
53936.0,STARLINK-4791,PAYLOAD,2023-10-11 01:24:08,15.08824215,0.0001539,53.2157,292.1621,83.9824,276.1343,-0.00025189,-4.293e-05,0.0,0 STARLINK-4791,1 53936U 22119BC  23284.05842831 -.00004293  00000-0 -25189-3 0  9999,2 53936  53.2157 292.1621 0001539  83.9824 276.1343 15.08824215 58674,6917.929,95.439,540.858,538.729,0.0
53936.0,STARLINK-4791,PAYLOAD,2023-10-11 07:45:40,15.08833172,0.000185,53.2171,290.9755,95.5833,264.537,-7.8421e-05,-1.536e-05,0.0,0 STARLINK-4791,1 53936U 22119BC  23284.32338635 -.00001536  00000-0 -78421-4 0  9996,2 53936  53.2171 290.9755 0001850  95.5833 264.5370 15.08833172 58717,6917.901,95.438,541.046,538.486,0.0
53936.0,STARLINK-4791,PAYLOAD,2023-10-12 09:11:50,15.08841977,0.0001796,53.216,286.2176,98.3348,261.7848,0.00026025,3.856e-05,0.0,0 STARLINK-4791,1 53936U 22119BC  23285.38322909  .00003856  00000-0  26025-3 0  9997,2 53936  53.2160 286.2176 0001796  98.3348 261.7848 15.08841977 58879,6917.874,95.437,540.982,538.497,0.0
53936.0,STARLINK-4791,PAYLOAD,2023-10-12 17:08:46,15.08843479,0.0001658,53.2157,284.7291,94.3999,265.7182,0.00028769,4.294e-05,0.0,0 STARLINK-4791,1 53936U 22119BC  23285.71443035  .00004294  00000-0  28769-3 0  9992,2 53936  53.2157 284.7291 0001658  94.3999 265.7182 15.08843479 59359,6917.87,95.437,540.882,538.588,0.0
53936.0,STARLINK-4791,PAYLOAD,2023-10-13 09:02:37,15.08851325,0.00018,53.2156,281.7555,88.3653,271.7546,0.00035213,5.322e-05,0.0,0 STARLINK-4791,1 53936U 22119BC  23286.37682586  .00005322  00000-0  35213-3 0  9996,2 53936  53.2156 281.7555 0001800  88.3653 271.7546 15.08851325 59458,6917.846,95.437,540.956,538.466,0.0
53936.0,STARLINK-4791,PAYLOAD,2023-10-13 16:59:33,15.08844783,0.0001764,53.2152,280.2677,94.7357,265.3836,0.00017342,2.473e-05,0.0,0 STARLINK-4791,1 53936U 22119BC  23286.70802748  .00002473  00000-0  17342-3 0  9994,2 53936  53.2152 280.2677 0001764  94.7357 265.3836 15.08844783 59073,6917.866,95.437,540.951,538.51,0.0
53936.0,STARLINK-4791,PAYLOAD,2023-10-14 08:53:24,15.08856961,0.0001719,53.2168,277.2923,96.779,263.3398,0.00026959,4.007e-05,0.0,0 STARLINK-4791,1 53936U 22119BC  23287.37041924  .00004007  00000-0  26959-3 0  9998,2 53936  53.2168 277.2923 0001719  96.7790 263.3398 15.08856961 59176,6917.829,95.436,540.883,538.504,0.0
53936.0,STARLINK-4791,PAYLOAD,2023-10-14 23:11:54,15.08827127,0.000186,53.2159,274.6183,90.5916,269.529,-9.1297e-05,-1.74e-05,0.0,0 STARLINK-4791,1 53936U 22119BC  23287.96659775 -.00001740  00000-0 -91297-4 0  9993,2 53936  53.2159 274.6183 0001860  90.5916 269.5290 15.08827127 59265,6917.92,95.438,541.071,538.498,0.0
53936.0,STARLINK-4791,PAYLOAD,2023-10-15 08:44:12,15.08827093,0.0001645,53.2153,272.8328,99.6592,260.4586,-8.2632e-05,-1.602e-05,0.0,0 STARLINK-4791,1 53936U 22119BC  23288.36403852 -.00001602  00000-0 -82632-4 0  9991,2 53936  53.2153 272.8328 0001645  99.6592 260.4586 15.08827093 59755,6917.92,95.438,540.923,538.647,0.0
53936.0,STARLINK-4791,PAYLOAD,2023-10-15 16:41:08,15.08835166,0.0001708,53.2174,271.3471,97.4958,262.6228,0.00012514,1.704e-05,0.0,0 STARLINK-4791,1 53936U 22119BC  23288.69523890  .00001704  00000-0  12514-3 0  9994,2 53936  53.2174 271.3471 0001708  97.4958 262.6228 15.08835166 59378,6917.895,95.438,540.942,538.579,0.0
53936.0,STARLINK-4791,PAYLOAD,2023-10-16 02:13:27,15.08850017,0.0001504,53.2161,269.5622,96.2693,263.8471,0.0006423,9.952e-05,0.0,0 STARLINK-4791,1 53936U 22119BC  23289.09267605  .00009952  00000-0  64230-3 0  9993,2 53936  53.2161 269.5622 0001504  96.2693 263.8471 15.08850017 59430,6917.85,95.437,540.755,538.674,0.0
53936.0,STARLINK-4791,PAYLOAD,2023-10-16 05:24:13,15.08857856,0.0001528,53.2157,268.9674,97.4491,262.6675,0.00082445,0.00012864,0.0,0 STARLINK-4791,1 53936U 22119BC  23289.22515428  .00012864  00000-0  82445-3 0  9991,2 53936  53.2157 268.9674 0001528  97.4491 262.6675 15.08857856 59880,6917.826,95.436,540.748,538.634,0.0
53936.0,STARLINK-4791,PAYLOAD,2023-10-16 22:53:27,15.08865602,0.0001599,53.2163,265.6963,91.6586,268.4589,0.00085775,0.00013399,0.0,0 STARLINK-4791,1 53936U 22119BC  23289.95379233  .00013399  00000-0  85775-3 0  9996,2 53936  53.2163 265.6963 0001599  91.6586 268.4589 15.08865602 59562,6917.802,95.436,540.773,538.561,0.0
53936.0,STARLINK-4791,PAYLOAD,2023-10-17 08:25:46,15.08862952,0.0001469,53.2164,263.912,84.5967,275.5193,0.00071206,0.0001107,0.0,0 STARLINK-4791,1 53936U 22119BC  23290.35122926  .00011070  00000-0  71206-3 0  9995,2 53936  53.2164 263.9120 0001469  84.5967 275.5193 15.08862952 59621,6917.81,95.436,540.691,538.659,0.0
53936.0,STARLINK-4791,PAYLOAD,2023-10-18 01:55:00,15.08849451,0.000169,53.2167,260.6372,78.4969,281.6213,0.00062478,9.672e-05,0.0,0 STARLINK-4791,1 53936U 22119BC  23291.07986989  .00009672  00000-0  62478-3 0  9998,2 53936  53.2167 260.6372 0001690  78.4969 281.6213 15.08849451 60168,6917.852,95.437,540.886,538.547,0.0
53936.0,STARLINK-4791,PAYLOAD,2023-10-18 05:05:46,15.08856708,0.0001544,53.217,260.047,92.6019,267.515,0.00091781,0.00014356,0.0,0 STARLINK-4791,1 53936U 22119BC  23291.21234728  .00014356  00000-0  91781-3 0  9995,2 53936  53.2170 260.0470 0001544  92.6019 267.5150 15.08856708 59756,6917.829,95.436,540.762,538.626,0.0
53936.0,STARLINK-4791,PAYLOAD,2023-10-18 20:59:38,15.08849015,0.0002488,53.2168,257.0726,79.0709,281.0563,0.00063833,9.888e-05,0.0,0 STARLINK-4791,1 53936U 22119BC  23291.87474865  .00009888  00000-0  63833-3 0  9996,2 53936  53.2168 257.0726 0002488  79.0709 281.0563 15.08849015 59859,6917.853,95.437,541.439,537.997,0.0
53936.0,STARLINK-4791,PAYLOAD,2023-10-19 04:56:34,15.08838835,0.0001374,53.2174,255.5897,89.3296,270.7853,-1.0846e-05,-4.61e-06,0.0,0 STARLINK-4791,1 53936U 22119BC  23292.20594991 -.00000461  00000-0 -10846-4 0  9994,2 53936  53.2174 255.5897 0001374  89.3296 270.7853 15.08838835 59907,6917.884,95.438,540.699,538.798,0.0
53936.0,STARLINK-4791,PAYLOAD,2023-10-20 04:47:21,15.08848458,0.000154,53.2167,251.1304,93.4233,266.6935,0.00033622,5.068e-05,0.0,0 STARLINK-4791,1 53936U 22119BC  23293.19954963  .00005068  00000-0  33622-3 0  9994,2 53936  53.2167 251.1304 0001540  93.4233 266.6935 15.08848458 60488,6917.855,95.437,540.785,538.654,0.0
53936.0,STARLINK-4791,PAYLOAD,2023-10-20 20:41:12,15.08836257,0.0001714,53.2186,248.1554,84.0818,276.037,0.00014278,1.985e-05,0.0,0 STARLINK-4791,1 53936U 22119BC  23293.86195597  .00001985  00000-0  14278-3 0  9998,2 53936  53.2186 248.1554 0001714  84.0818 276.0370 15.08836257 60156,6917.892,95.438,540.943,538.571,0.0
